     3.00           N                   E                   RINEX VERSION / TYPE
BRD_USR             ESA                 20190109 021751  UTCPGM / RUN BY / DATE
 GAL   4.8250E+01  8.5938E-02 -3.9368E-03  0.0000E+00       IONOSPHERIC CORR
GAUT  0.0000000000E+00 0.000000000E+00 172800 2035 GSTB   0 TIME SYSTEM CORR
GPGA -5.5297277868E-10 4.884981308E-15 259200 2035 GSTB   0 TIME SYSTEM CORR
                                                            END OF HEADER
E30 2019 01 09 00 10 00 5.203775712289E-03-3.049649421882E-11 0.000000000000E+00
     4.900000000000E+01 6.462500000000E+01 2.555463588173E-09-2.747482964836E-01
     2.983957529068E-06 3.010496729985E-04 1.198425889015E-05 5.440620414734E+03
     2.598000000000E+05 7.450580596924E-09-2.944152909615E+00-3.352761268616E-08
     9.878309945317E-01 9.790625000000E+01 5.122415027661E-01-5.103426863928E-09
    -4.575190575052E-10 2.580000000000E+02 2.035000000000E+03 0.000000000000E+00
     3.120000000000E+00 0.000000000000E+00-3.026798367500E-09 0.000000000000E+00
     2.606000000000E+05 0.000000000000E+00 0.000000000000E+00 0.000000000000E+00
E18 2019 01 09 00 10 00 5.620561307296E-03-2.843592028512E-11 0.000000000000E+00
     4.900000000000E+01 2.484375000000E+01 4.679123475703E-09 4.799962823204E-01
    -4.172325134277E-07 1.663850919576E-01 5.345791578293E-06 5.289349042892E+03
     2.598000000000E+05-1.292675733566E-06-1.446124252240E+00-5.759298801422E-06
     8.817635235958E-01 2.445937500000E+02 1.439782268299E+00-7.072437452551E-09
     1.228979763369E-09 5.210000000000E+02 2.035000000000E+03 0.000000000000E+00
     3.120000000000E+00 4.550000000000E+02 1.420266926289E-08 1.606531441212E-08
     2.606350000000E+05 0.000000000000E+00 0.000000000000E+00 0.000000000000E+00
E12 2019 01 09 00 00 00 5.900278221816E-03 8.438405529887E-11 0.000000000000E+00
     4.800000000000E+01-7.218750000000E+01 3.010482541539E-09 2.115943175698E+00
    -3.358349204063E-06 3.808668116108E-04-6.332993507385E-08 5.440607431412E+03
     2.592000000000E+05 4.284083843231E-08-8.621099418824E-01 2.607703208923E-08
     9.819197463388E-01 3.502812500000E+02-8.891715491069E-01-5.865601468702E-09
    -1.853648640478E-10 2.580000000000E+02 2.035000000000E+03 0.000000000000E+00
     3.120000000000E+00 0.000000000000E+00-1.559965312481E-08 0.000000000000E+00
     2.606500000000E+05 0.000000000000E+00 0.000000000000E+00 0.000000000000E+00
E18 2019 01 09 00 10 00 5.620559037197E-03-2.843592028512E-11 0.000000000000E+00
     4.900000000000E+01 2.484375000000E+01 4.679123475703E-09 4.799962823204E-01
    -4.172325134277E-07 1.663850919576E-01 5.345791578293E-06 5.289349042892E+03
     2.598000000000E+05-1.292675733566E-06-1.446124252240E+00-5.759298801422E-06
     8.817635235958E-01 2.445937500000E+02 1.439782268299E+00-7.072437452551E-09
     1.228979763369E-09 2.580000000000E+02 2.035000000000E+03 0.000000000000E+00
     3.120000000000E+00 5.600000000000E+01 1.420266926289E-08 0.000000000000E+00
     2.606500000000E+05 0.000000000000E+00 0.000000000000E+00 0.000000000000E+00
E12 2019 01 09 00 00 00 5.900278396439E-03 8.438405529887E-11 0.000000000000E+00
     4.800000000000E+01-7.218750000000E+01 3.010482541539E-09 2.115943175698E+00
    -3.358349204063E-06 3.808668116108E-04-6.332993507385E-08 5.440607431412E+03
     2.592000000000E+05 4.284083843231E-08-8.621099418824E-01 2.607703208923E-08
     9.819197463388E-01 3.502812500000E+02-8.891715491069E-01-5.865601468702E-09
    -1.853648640478E-10 5.210000000000E+02 2.035000000000E+03 0.000000000000E+00
     3.120000000000E+00 0.000000000000E+00-1.559965312481E-08-1.606531441212E-08
     2.606650000000E+05 0.000000000000E+00 0.000000000000E+00 0.000000000000E+00
E19 2019 01 09 00 10 00-9.272189345211E-06 2.984279490192E-13 0.000000000000E+00
     4.900000000000E+01 2.015625000000E+01 3.136916379444E-09-2.302882020554E+00
     1.057982444763E-06 1.309599028900E-04 8.754432201385E-06 5.440615753174E+03
     2.598000000000E+05 3.539025783539E-08 1.239843251671E+00-2.793967723846E-08
     9.581007848120E-01 1.510937500000E+02 2.355177652408E+00-5.457370178516E-09
     6.421696060846E-10 5.210000000000E+02 2.035000000000E+03 0.000000000000E+00
     3.120000000000E+00 0.000000000000E+00-8.614733815193E-09-9.080395102501E-09
     2.607850000000E+05 0.000000000000E+00 0.000000000000E+00 0.000000000000E+00
E08 2019 01 09 00 10 00 6.427172047552E-03-7.489120434911E-12 0.000000000000E+00
     4.900000000000E+01 2.287500000000E+01 3.215491080967E-09 1.875009538656E+00
     1.098960638046E-06 2.170255174860E-04 9.043142199516E-06 5.440614116669E+03
     2.598000000000E+05 4.470348358154E-08 1.234490737243E+00 4.284083843231E-08
     9.583153246741E-01 1.419687500000E+02 4.553585284705E-01-5.503443526227E-09
     6.646705433389E-10 2.580000000000E+02 2.035000000000E+03 0.000000000000E+00
     3.120000000000E+00 0.000000000000E+00-8.614733815193E-09 0.000000000000E+00
     2.608000000000E+05 0.000000000000E+00 0.000000000000E+00 0.000000000000E+00
E19 2019 01 09 00 10 00-9.272131137550E-06 2.842170943040E-13 0.000000000000E+00
     4.900000000000E+01 2.015625000000E+01 3.136916379444E-09-2.302882020554E+00
     1.057982444763E-06 1.309599028900E-04 8.754432201385E-06 5.440615753174E+03
     2.598000000000E+05 3.539025783539E-08 1.239843251671E+00-2.793967723846E-08
     9.581007848120E-01 1.510937500000E+02 2.355177652408E+00-5.457370178516E-09
     6.421696060846E-10 2.580000000000E+02 2.035000000000E+03 0.000000000000E+00
     3.120000000000E+00 0.000000000000E+00-8.614733815193E-09 0.000000000000E+00
     2.608000000000E+05 0.000000000000E+00 0.000000000000E+00 0.000000000000E+00
E08 2019 01 09 00 10 00 6.427171349060E-03-7.489120434911E-12 0.000000000000E+00
     4.900000000000E+01 2.287500000000E+01 3.215491080967E-09 1.875009538656E+00
     1.098960638046E-06 2.170255174860E-04 9.043142199516E-06 5.440614116669E+03
     2.598000000000E+05 4.470348358154E-08 1.234490737243E+00 4.284083843231E-08
     9.583153246741E-01 1.419687500000E+02 4.553585284705E-01-5.503443526227E-09
     6.646705433389E-10 5.210000000000E+02 2.035000000000E+03 0.000000000000E+00
     3.120000000000E+00 0.000000000000E+00-8.614733815193E-09-9.778887033463E-09
     2.608150000000E+05 0.000000000000E+00 0.000000000000E+00 0.000000000000E+00
E24 2019 01 09 00 10 00 6.295851781033E-03-1.965361207112E-11 0.000000000000E+00
     4.900000000000E+01 5.300000000000E+01 2.581893260503E-09 2.137322216621E+00
     2.548098564148E-06 4.689240595326E-04 1.130066812038E-05 5.440625205994E+03
     2.598000000000E+05-8.381903171539E-08-2.944097226564E+00 8.754432201385E-08
     9.878462278977E-01 1.122187500000E+02 4.538778096040E-01-5.173072622096E-09
    -3.946592962867E-10 5.210000000000E+02 2.035000000000E+03 0.000000000000E+00
     3.120000000000E+00 0.000000000000E+00 4.260800778866E-08 4.796311259270E-08
     2.609050000000E+05 0.000000000000E+00 0.000000000000E+00 0.000000000000E+00
E01 2019 01 09 00 20 00-5.167206982151E-04-8.142819751811E-12 0.000000000000E+00
     5.000000000000E+01 3.987500000000E+01 2.560463796452E-09-1.248792237552E+00
     1.786276698112E-06 1.120927045122E-04 1.163221895695E-05 5.440619388580E+03
     2.604000000000E+05-4.284083843231E-08-2.947566928851E+00-1.676380634308E-08
     9.902792186586E-01 1.049687500000E+02-7.933175094986E-01-5.126284958916E-09
    -4.089456056545E-10 5.210000000000E+02 2.035000000000E+03 0.000000000000E+00
     3.120000000000E+00 0.000000000000E+00-4.656612873077E-09-5.122274160385E-09
     2.610850000000E+05 0.000000000000E+00 0.000000000000E+00 0.000000000000E+00
E03 2019 01 09 00 20 00-1.200531842187E-04-4.263256414561E-12 0.000000000000E+00
     5.000000000000E+01 3.012500000000E+01 3.305851987719E-09 2.574213910319E+00
     1.443549990654E-06 2.618337748572E-04 8.981674909592E-06 5.440613924026E+03
     2.604000000000E+05 7.450580596924E-09 1.243113862511E+00 5.587935447693E-08
     9.523281364037E-01 1.434375000000E+02 6.143311092651E-01-5.580589596814E-09
     6.782425372384E-10 5.210000000000E+02 2.035000000000E+03 0.000000000000E+00
     3.120000000000E+00 0.000000000000E+00-1.862645149231E-09-2.095475792885E-09
     2.610850000000E+05 0.000000000000E+00 0.000000000000E+00 0.000000000000E+00
E05 2019 01 09 00 20 00 1.283292076550E-04-6.551204023708E-12 0.000000000000E+00
     5.000000000000E+01 3.737500000000E+01 3.294065782490E-09 2.364686862768E+00
     1.741573214531E-06 1.327180070803E-04 8.728355169296E-06 5.440615722656E+03
     2.604000000000E+05-6.146728992462E-08 1.243097716284E+00 7.078051567078E-08
     9.523417854294E-01 1.493750000000E+02 1.611338040937E+00-5.551302662610E-09
     6.443125524897E-10 5.210000000000E+02 2.035000000000E+03 0.000000000000E+00
     3.120000000000E+00 0.000000000000E+00-1.396983861923E-09-1.629814505577E-09
     2.610850000000E+05 0.000000000000E+00 0.000000000000E+00 0.000000000000E+00
E08 2019 01 09 00 20 00 6.427166983485E-03-7.474909580196E-12 0.000000000000E+00
     5.000000000000E+01 2.418750000000E+01 3.220134131512E-09 1.950228985631E+00
     1.171603798866E-06 2.171836094931E-04 9.113922715187E-06 5.440613634109E+03
     2.604000000000E+05 4.284083843231E-08 1.234487457381E+00 4.842877388000E-08
     9.583157079587E-01 1.406562500000E+02 4.545243608783E-01-5.507372261304E-09
     6.635990701363E-10 5.210000000000E+02 2.035000000000E+03 0.000000000000E+00
     3.120000000000E+00 0.000000000000E+00-8.614733815193E-09-9.778887033463E-09
     2.610850000000E+05 0.000000000000E+00 0.000000000000E+00 0.000000000000E+00
